#dP2018  3 23  0  0  0.00000000      96 __u+U ITR00 FIT  IAC
## 1993 432000.00000000   900.00000000 58200 0.0000000000000
+   89   C01C02C03C04C05C06C07C08C09C10C11C12C13C14E01E02E03
+        E04E05E07E08E09E11E12E14E18E19E24E26E30G01G02G03G04
+        G05G06G07G08G09G10G11G12G13G14G15G16G17G18G19G20G21
+        G22G23G24G25G26G27G28G29G30G31G32J01J02J03R01R02R03
+        R04R05R06R07R08R09R10R11R13R14R15R16R17R18R19R20R21
+        R22R23R24R26  0  0  0  0  0  0  0  0  0  0  0  0  0
++         0  0  0  0  0  0  0  0  0  0  0  0  0  0  0  0  0
++         0  0  0  0  0  0  0  0  0  0  0  0  0  0  0  0  0
++         0  0  0  0  0  0  0  0  0  0  0  0  0  0  0  0  0
++         0  0  0  0  0  0  0  0  0  0  0  0  0  0  0  0  0
++         0  0  0  0  0  0  0  0  0  0  0  0  0  0  0  0  0
++         0  0  0  0  0  0  0  0  0  0  0  0  0  0  0  0  0
%c M  cc GPS ccc cccc cccc cccc cccc ccccc ccccc ccccc ccccc
%c cc cc ccc ccc cccc cccc cccc cccc ccccc ccccc ccccc ccccc
%f  0.0000000  0.000000000  0.00000000000  0.000000000000000
%f  0.0000000  0.000000000  0.00000000000  0.000000000000000
%i    0    0    0    0      0      0      0      0         0
%i    0    0    0    0      0      0      0      0         0
/*                                                          
/*   RSA / INFORMATION & ANALYSIS CENTER (IAC) OF MCC       
/*   ULTRA-RAPID DETERMINATION                              
/* PCV:IGS14_1992 OL/AL:FES2004  NONE     YN ORB:CoN CLK:CoN
*  2018 03 23 17 45  0.00000000
PC01 -32279.339735  27114.353180   -844.575577 999999.999999
PC02   4469.721324  41917.613314   1230.016163    657.098861
PC03 -14808.491457  39527.318206   -103.738977   -267.976083
PC04 -39577.056024  14504.932609   -202.911703    -68.013908
PC05  21922.159630  36007.944642   1558.733496   -186.255521
PC06 -15123.140019  38786.322684   7920.047684    312.814354
PC07  -8607.811354  25215.233774 -32499.827082    922.210683
PC08 -24609.503787  23709.288788  24617.172096    245.548650
PC09  -6366.116366  41212.254302  -7152.387529   -288.135538
PC10   4376.232224  31229.884387 -27725.748857   -104.391858
PC11  23086.512263 -11053.496361  11258.398695   -439.286441
PC12  15170.910850   6403.340329  22602.670774    398.351249
PC13  -8003.268721  25692.163110  32413.939547   -258.505477
PC14  15912.287349  -2258.387543 -22757.463499    319.338812
PE01 -11180.083750 -21868.386156  16516.156878   -304.849309
PE02  11201.135180  21876.913697 -16508.687578      8.389797
PE03   2010.730998  28467.314460  -7839.734217    -12.895652
PE04 -13632.564215 -14870.175534  21664.233832     -0.040395
PE05 -10824.381498  25425.116627  10618.457941    298.508544
PE07  17289.947057  -7512.500305 -22813.055616     62.946513
PE08  13634.559669  14748.631745 -21735.296761   6618.498002
PE09 -17092.045423   7617.181543  22940.664174   6840.580218
PE11 -27915.057374   8777.532224  -4544.844594   1841.093457
PE12 -20519.305358  -6107.434818 -20440.568902   3776.842779
PE14 -14760.345292  23734.997956   2236.583303   6610.977141
PE18   2014.994274 -24702.605689 -15898.075862   6336.438172
PE19   -803.672558 -28943.247578   6131.246441     20.616221
PE24 -22905.356853  -2059.039310 -18638.516284   6797.664698
PE26  19097.895333 -18150.889376 -13479.351406   6132.504706
PE30  24161.901142  17036.916809   1566.734893   5979.073861
PG01 -13793.130438 -13326.259686 -18638.536127    -35.972677
PG02 -10937.342881  14460.659296  19882.713028    165.811594
PG03 -12640.512460 -23392.727488    285.423701     35.074062
PG04  13176.144331  -6487.629918  21884.587538     46.644473
PG05  -1802.608761  20748.798300  16262.280295    -11.450659
PG06 -22724.268638   7309.552223  11704.017448    411.724432
PG07 -25244.533414  -6117.794291   6791.137449    218.616592
PG08   1315.759526 -21851.192922 -14887.164284    -95.339802
PG09 -14966.565578  -4655.001895  21408.573501    508.113186
PG10  16037.360923  -1296.330694 -21118.235523    172.912065
PG11  -9496.116569 -13998.201276 -21021.749067   -737.493069
PG12  10086.216747  24653.298645  -1528.064113    343.720661
PG13 -10930.813214  22768.452707  -8348.007514    -95.434156
PG14  18209.367070 -18348.366906  -5402.729676    -95.444025
PG15   1210.210200  21917.555514 -14891.159639   -356.179756
PG16   3173.445215 -20204.691037  16552.622440     29.560452
PG17 -19213.184071  12253.721098 -13155.365567   -113.258233
PG18  -4504.323261 -15462.016807 -21593.836913    -12.405906
PG19 -19341.318403  16839.533175  -7581.033146   -448.842160
PG20  16073.446922  21128.281308  -1953.333158    503.945859
PG21  26027.245917   3280.178849   4970.203163   -416.123521
PG22  -8705.124769 -24105.941223  -6705.796829   -333.085290
PG23  -6730.078880 -16551.973178  19793.149696   -218.438277
PG24  10531.261471  14398.578970 -19876.456314    -47.620979
PG25  17202.406138  17376.994059  10489.411903   -558.130839
PG26  10360.025163 -12152.642006  21196.322251   -207.694024
PG27  11861.840299 -23387.667842  -3284.864787    369.889667
PG28 -16043.073097  -3494.547929 -20244.818393    699.700488
PG29  11878.455637   8673.476320  22102.146201    477.801818
PG30 -26525.454370   -550.211566  -2457.748531     92.055682
PG31  22283.834969  -7460.018732  12813.763547    133.450630
PG32  18990.555115 -12041.333526 -14044.160383   -526.535084
PJ01 -24583.682043  25337.235439  28121.157923   -337.728717
PJ02 -29210.406002  14443.265782 -22387.710070 999999.999999
PJ03      0.000000      0.000000      0.000000 999999.999999
PR01  10891.464001   8347.064891 -21496.302883     23.780446
PR02   8884.493411 -13089.521093 -19955.553996    301.232225
PR03   1737.242985 -24709.340327  -5965.279748    127.477115
PR04  -6639.693390 -21598.775487  11837.284723    254.424702
PR05 -11064.215048  -6489.790389  22043.177913   -269.919745
PR06  -8579.051664  14117.598051  19437.185842    129.243366
PR07  -1608.832884  24844.514939   5668.068543    -33.294273
PR08   6302.691627  22022.443370 -11173.849862     22.750979
PR09 -15758.745125   2451.842757 -19919.654098     39.883675
PR10    866.395686  12153.777577 -22423.492270     21.046136
PR11  17093.451157  15193.254516 -11249.536909    -24.705014
PR13  15192.483406  -2875.763557  20263.384959     -8.699944
PR14   -617.621016 -12291.599950  22349.855863     25.700877
PR15 -14360.835670 -15227.359605  14504.971983     -7.807627
PR16 -23217.171806  -8878.275710  -5482.289801     88.505642
PR17  12232.604299 -16160.629203 -15490.849615    118.968208
PR18  -3895.094133 -10034.291576 -23103.356993    189.269164
PR19 -18132.408678   1494.741282 -17876.327420    -48.068818
PR20 -22087.976114  12781.868752   -977.813411   -331.706018
PR21 -11967.318966  16091.617175  15760.148292     24.029271
PR22   5501.461993   9015.692831  23227.871897    -28.888478
PR23  19923.443839  -4262.908720  15338.762801    143.437696
PR24  21647.413930 -13469.241596    184.677404   -164.036691
PR26 -21882.776547  13014.866315  -1388.424941 999999.999999
EOF
